{"type":"FeatureCollection","features":[{"type":"Feature","properties":{"OBJECTID":1,"EPALICENCE":"SYN-LIC-01","ACTIVITY":"Synthetic food production","LICENCE_NAME":"Synthetic Example A","PR_LINK":"https://example.invalid/licence/1"},"geometry":{"type":"Point","coordinates":[138.6,-34.9]}},{"type":"Feature","properties":{"OBJECTID":2,"EPALICENCE":"SYN-LIC-01","ACTIVITY":"Synthetic by-product handling","LICENCE_NAME":"Synthetic Example A","PR_LINK":"https://example.invalid/licence/1"},"geometry":{"type":"Point","coordinates":[138.6,-34.9]}},{"type":"Feature","properties":{"OBJECTID":3,"EPALICENCE":"SYN-LIC-02","ACTIVITY":"Synthetic activity","LICENCE_NAME":"Synthetic Example B","PR_LINK":"https://example.invalid/licence/2"},"geometry":{"type":"Point","coordinates":[138.8,-35.0]}}]}
